STARLINK-32791          
1 62530U 25004V   26068.45526885  .00026424  00000+0  96689-3 0  9990
2 62530  43.0014 221.1126 0001890 265.4901  94.5734 15.27560353 66427
PELICAN-6               
1 66703U 25276AP  26068.70709364  .00077979  00000+0  29726-2 0  9998
2 66703  97.4276 144.2072 0003569 157.8575 202.2819 15.26377980 15334
